OBJECT_NAME,OBJECT_ID,EPOCH,MEAN_MOTION,ECCENTRICITY,INCLINATION,RA_OF_ASC_NODE,ARG_OF_PERICENTER,MEAN_ANOMALY,EPHEMERIS_TYPE,CLASSIFICATION_TYPE,NORAD_CAT_ID,ELEMENT_SET_NO,REV_AT_EPOCH,BSTAR,MEAN_MOTION_DOT,MEAN_MOTION_DDOT
SHIJIAN-21 (SJ-21),2021-094A,2026-07-23T14:28:53.968224,1.00274710,.0051462,5.1967,60.9554,168.8369,56.7974,0,U,49330,999,572,0,-.347E-5,0
SES-17,2021-095A,2026-07-23T19:30:32.668704,1.00270174,.0001188,0.0215,49.0582,63.6151,54.4106,0,U,49332,999,1822,0,-.267E-5,0
SYRACUSE 4A,2021-095B,2026-07-23T13:12:00.418176,1.00270178,.000149,0.0244,63.2952,54.8943,66.6008,0,U,49333,999,1831,0,0,0
QZS-1R (MICHIBIKI-1R),2021-096A,2026-07-23T13:00:38.746368,1.00242971,.0755622,37.5340,79.0424,272.3546,275.8173,0,U,49336,999,1737,0,-.328E-5,0
ZHONGXING-1D,2021-114A,2026-07-23T20:26:52.090656,1.00273030,.0000184,0.0331,229.5168,95.2914,53.6610,0,U,49505,999,1718,0,-.331E-5,0
STPSAT-6,2021-118A,2026-07-23T15:20:49.718112,1.00271270,.0000763,0.4120,85.0639,262.0366,72.6520,0,U,49817,999,1693,0,-.4E-6,0
EXPRESS AMU-7,2021-123A,2026-07-23T20:30:59.194656,1.00272171,.0000293,0.0243,287.6657,91.2026,15.4593,0,U,50001,999,1690,0,-.237E-5,0
EXPRESS AMU-3,2021-123B,2026-07-22T21:05:29.908896,1.00272483,.00001762,0.0084,297.0369,60.1577,2.7934,0,U,50002,999,738,0,-.317E-5,0
TIANLIAN 2-02,2021-124A,2026-07-22T20:41:17.143008,1.00272928,.00014432,0.8913,85.5687,149.0671,187.2502,0,U,50005,999,1697,0,-.11E-6,0
TURKSAT 5B,2021-126A,2026-07-23T08:33:38.784960,1.00271147,.0002021,0.0707,338.3290,20.5146,112.6294,0,U,50212,999,1666,0,.151E-5,0
INMARSAT 6-F1,2021-128A,2026-07-23T20:13:30.869760,1.00271128,.0000389,0.0251,57.6238,46.9497,224.1295,0,U,50319,999,1662,0,0,0
SHIYAN-12 01 (SY-12 01),2021-129A,2026-07-22T06:20:25.153728,1.00055591,.0002594,3.7626,79.4374,292.5409,54.8525,0,U,50321,999,1684,0,.142E-5,0
SHIYAN-12 02 (SY-12 02),2021-129B,2026-07-22T12:48:38.790720,1.00474110,.0003285,3.7622,79.4327,66.3052,102.4546,0,U,50322,999,1685,0,-.361E-5,0
TJS-9,2021-135A,2026-07-23T20:28:51.898944,1.00269876,.000239,0.0661,99.2336,339.9146,306.8790,0,U,50574,999,1679,0,-.294E-5,0
GOES 18,2022-021A,2026-07-23T19:24:38.725920,1.00271333,.0000557,0.0171,78.0904,68.3495,309.2539,0,U,51850,999,696,0,0,0
ZHONGXING-6D,2022-038A,2026-07-23T19:33:36.806112,1.00272704,.0000961,0.0075,84.4602,147.2875,128.2324,0,U,52255,999,1578,0,-.349E-5,0
NILESAT 301,2022-061A,2026-07-23T19:47:36.746304,1.00270950,.0003693,0.0511,336.1166,106.2924,149.0139,0,U,52817,999,1510,0,-.53E-6,0
CMS-02 (GSAT-24),2022-067A,2026-07-23T20:13:23.383200,1.00272570,.000073,0.0524,245.9857,125.5078,316.4192,0,U,52903,999,1497,0,-.16E-5,0
MEASAT 3D,2022-067B,2026-07-23T20:15:45.653760,1.00271859,.0000317,0.0599,292.0614,186.7009,218.2432,0,U,52904,999,1501,0,-.236E-5,0
SES-22,2022-071A,2026-07-23T18:49:38.754048,1.00270381,.0001373,0.0293,284.2488,180.8965,339.7652,0,U,52933,999,789,0,.11E-5,0
WFOV (USA 332),2022-073A,2026-07-23T16:58:22.168992,1.00273682,.0000868,3.8017,78.0648,179.2167,58.0668,0,U,52940,999,1473,0,-.361E-5,0
TIANLIAN 2-03,2022-078A,2026-07-23T20:59:38.609088,1.00270342,.0000602,0.7615,77.5761,37.4947,152.0280,0,U,53100,999,1491,0,.76E-6,0
SBIRS GEO-6 (USA 336),2022-092A,2026-07-23T20:29:21.851232,1.00271949,.0002061,3.1972,318.0971,156.1487,273.6727,0,U,53355,999,1460,0,-.282E-5,0
EUTELSAT KONNECT VHTS,2022-110A,2026-07-23T18:07:45.516288,1.00274975,.0003111,0.0568,100.5129,359.7183,115.9078,0,U,53765,999,720,0,.23E-6,0
ZHONGXING-1E,2022-112A,2026-07-23T21:55:31.882080,1.00272433,.0000651,0.0437,226.8869,28.8211,96.2342,0,U,53813,999,1421,0,-.144E-5,0
SES-20,2022-123A,2026-07-23T14:12:19.448064,1.00268913,.0002227,0.0134,64.5030,25.5414,321.2560,0,U,53960,999,1389,0,-.96E-6,0
SES-21,2022-123B,2026-07-23T14:28:35.901120,1.00268186,.0000827,0.0372,44.8411,82.5832,260.1458,0,U,53961,999,757,0,0,0
GALAXY 33 (G-33),2022-128A,2026-07-23T14:27:20.702880,1.00271354,.0002041,0.0156,17.2912,96.7538,271.1186,0,U,54026,999,1410,0,.84E-6,0
GALAXY 34 (G-34),2022-128B,2026-07-23T14:28:00.300864,1.00271652,.0001756,0.0094,46.7893,69.9013,272.6376,0,U,54027,999,1427,0,.64E-6,0
ANGOSAT 2,2022-131A,2026-07-23T19:33:38.735424,1.00269785,.0000153,0.0197,144.0824,22.0589,91.8084,0,U,54033,999,1384,0,.14E-5,0
EUTELSAT HOTBIRD 13F,2022-134A,2026-07-23T20:59:38.609088,1.00271811,.0002001,0.0537,282.0994,84.2582,263.1598,0,U,54048,999,1374,0,.92E-6,0
LDPE-2,2022-144A,2026-07-23T07:50:20.851008,1.00546878,.0002591,5.6832,63.2396,104.7545,128.1083,0,U,54219,999,1220,0,-.21E-6,0
