SHIJIAN-21 (SJ-21)      
1 49330U 21094A   26204.60340241 -.00000347  00000+0  00000+0 0  9992
2 49330   5.1967  60.9554 0051462 168.8369  56.7974  1.00274710  5721
SES-17                  
1 49332U 21095A   26204.81287811 -.00000267  00000+0  00000+0 0  9992
2 49332   0.0215  49.0582 0001188  63.6151  54.4106  1.00270174 18224
SYRACUSE 4A             
1 49333U 21095B   26204.55000484  .00000000  00000+0  00000+0 0  9997
2 49333   0.0244  63.2952 0001490  54.8943  66.6008  1.00270178 18313
QZS-1R (MICHIBIKI-1R)   
1 49336U 21096A   26204.54211512 -.00000328  00000+0  00000+0 0  9990
2 49336  37.5340  79.0424 0755622 272.3546 275.8173  1.00242971 17378
ZHONGXING-1D            
1 49505U 21114A   26204.85199179 -.00000331  00000+0  00000+0 0  9991
2 49505   0.0331 229.5168 0000184  95.2914  53.6610  1.00273030 17182
STPSAT-6                
1 49817U 21118A   26204.63946433 -.00000040  00000+0  00000+0 0  9997
2 49817   0.4120  85.0639 0000763 262.0366  72.6520  1.00271270 16931
EXPRESS AMU-7           
1 50001U 21123A   26204.85485179 -.00000237  00000+0  00000+0 0  9997
2 50001   0.0243 287.6657 0000293  91.2026  15.4593  1.00272171 16906
EXPRESS AMU-3           
1 50002U 21123B   26203.87881839 -.00000317  00000+0  00000+0 0  9991
2 50002   0.0084 297.0369 0000176  60.1577   2.7934  1.00272483  7387
TIANLIAN 2-02           
1 50005U 21124A   26203.86200397 -.00000011  00000+0  00000+0 0  9999
2 50005   0.8913  85.5687 0001443 149.0671 187.2502  1.00272928 16971
TURKSAT 5B              
1 50212U 21126A   26204.35669890  .00000151  00000+0  00000+0 0  9997
2 50212   0.0707 338.3290 0002021  20.5146 112.6294  1.00271147 16664
INMARSAT 6-F1           
1 50319U 21128A   26204.84271840  .00000000  00000+0  00000+0 0  9998
2 50319   0.0251  57.6238 0000389  46.9497 224.1295  1.00271128 16620
SHIYAN-12 01 (SY-12 01) 
1 50321U 21129A   26203.26418002  .00000142  00000+0  00000+0 0  9997
2 50321   3.7626  79.4374 0002594 292.5409  54.8525  1.00055591 16846
SHIYAN-12 02 (SY-12 02) 
1 50322U 21129B   26203.53378230 -.00000361  00000+0  00000+0 0  9990
2 50322   3.7622  79.4327 0003285  66.3052 102.4546  1.00474110 16856
TJS-9                   
1 50574U 21135A   26204.85337846 -.00000294  00000+0  00000+0 0  9995
2 50574   0.0661  99.2336 0002390 339.9146 306.8790  1.00269876 16792
GOES 18                 
1 51850U 22021A   26204.80878155  .00000000  00000+0  00000+0 0  9990
2 51850   0.0171  78.0904 0000557  68.3495 309.2539  1.00271333  6962
ZHONGXING-6D            
1 52255U 22038A   26204.81500933 -.00000349  00000+0  00000+0 0  9992
2 52255   0.0075  84.4602 0000961 147.2875 128.2324  1.00272704 15783
NILESAT 301             
1 52817U 22061A   26204.82473086 -.00000053  00000+0  00000+0 0  9993
2 52817   0.0511 336.1166 0003693 106.2924 149.0139  1.00270950 15101
CMS-02 (GSAT-24)        
1 52903U 22067A   26204.84263175 -.00000160  00000+0  00000+0 0  9992
2 52903   0.0524 245.9857 0000730 125.5078 316.4192  1.00272570 14971
MEASAT 3D               
1 52904U 22067B   26204.84427840 -.00000236  00000+0  00000+0 0  9998
2 52904   0.0599 292.0614 0000317 186.7009 218.2432  1.00271859 15013
SES-22                  
1 52933U 22071A   26204.78447632  .00000110  00000+0  00000+0 0  9999
2 52933   0.0293 284.2488 0001373 180.8965 339.7652  1.00270381  7896
WFOV (USA 332)          
1 52940U 22073A   26204.70720103 -.00000361  00000+0  00000+0 0  9997
2 52940   3.8017  78.0648 0000868 179.2167  58.0668  1.00273682 14736
TIANLIAN 2-03           
1 53100U 22078A   26204.87475242  .00000076  00000+0  00000+0 0  9992
2 53100   0.7615  77.5761 0000602  37.4947 152.0280  1.00270342 14917
SBIRS GEO-6 (USA 336)   
1 53355U 22092A   26204.85372513 -.00000282  00000+0  00000+0 0  9995
2 53355   3.1972 318.0971 0002061 156.1487 273.6727  1.00271949 14603
EUTELSAT KONNECT VHTS   
1 53765U 22110A   26204.75538792  .00000023  00000+0  00000+0 0  9995
2 53765   0.0568 100.5129 0003111 359.7183 115.9078  1.00274975  7202
ZHONGXING-1E            
1 53813U 22112A   26204.91356345 -.00000144  00000+0  00000+0 0  9996
2 53813   0.0437 226.8869 0000651  28.8211  96.2342  1.00272433 14217
SES-20                  
1 53960U 22123A   26204.59189176 -.00000096  00000+0  00000+0 0  9997
2 53960   0.0134  64.5030 0002227  25.5414 321.2560  1.00268913 13895
SES-21                  
1 53961U 22123B   26204.60319330  .00000000  00000+0  00000+0 0  9991
2 53961   0.0372  44.8411 0000827  82.5832 260.1458  1.00268186  7572
GALAXY 33 (G-33)        
1 54026U 22128A   26204.60232295  .00000084  00000+0  00000+0 0  9995
2 54026   0.0156  17.2912 0002041  96.7538 271.1186  1.00271354 14103
GALAXY 34 (G-34)        
1 54027U 22128B   26204.60278126  .00000064  00000+0  00000+0 0  9997
2 54027   0.0094  46.7893 0001756  69.9013 272.6376  1.00271652 14278
ANGOSAT 2               
1 54033U 22131A   26204.81503166  .00000140  00000+0  00000+0 0  9991
2 54033   0.0197 144.0824 0000153  22.0589  91.8084  1.00269785 13846
EUTELSAT HOTBIRD 13F    
1 54048U 22134A   26204.87475242  .00000092  00000+0  00000+0 0  9995
2 54048   0.0537 282.0994 0002001  84.2582 263.1598  1.00271811 13744
LDPE-2                  
1 54219U 22144A   26204.32663022 -.00000021  00000+0  00000+0 0  9994
2 54219   5.6832  63.2396 0002591 104.7545 128.1083  1.00546878 12206
